{"fetched_at":"2026-07-11T09:24:12.250Z","source":"https://celestrak.org/NORAD/elements/gp.php?NAME=CAPELLA&FORMAT=JSON","constellation":"capella","records":[{"OBJECT_NAME":"CAPELLA-11 (ACADIA-1)","OBJECT_ID":"2023-126A","EPOCH":"2026-07-10T06:34:49.845792","CLASSIFICATION_TYPE":"U","MEAN_MOTION":14.84779502,"ECCENTRICITY":0.0002161,"INCLINATION":53.0069,"RA_OF_ASC_NODE":84.6811,"ARG_OF_PERICENTER":108.2589,"MEAN_ANOMALY":251.8626,"EPHEMERIS_TYPE":0,"NORAD_CAT_ID":57693,"ELEMENT_SET_NO":999,"REV_AT_EPOCH":15555,"BSTAR":0.00031727,"MEAN_MOTION_DOT":0.00002487,"MEAN_MOTION_DDOT":0},{"OBJECT_NAME":"CAPELLA-14 (ACADIA-4)","OBJECT_ID":"2024-066C","EPOCH":"2026-07-10T09:37:37.930080","CLASSIFICATION_TYPE":"U","MEAN_MOTION":15.09192985,"ECCENTRICITY":0.00002568,"INCLINATION":45.6019,"RA_OF_ASC_NODE":133.0062,"ARG_OF_PERICENTER":292.39,"MEAN_ANOMALY":67.6958,"EPHEMERIS_TYPE":0,"NORAD_CAT_ID":59444,"ELEMENT_SET_NO":999,"REV_AT_EPOCH":11599,"BSTAR":0.00051362493,"MEAN_MOTION_DOT":0.00008048,"MEAN_MOTION_DDOT":0},{"OBJECT_NAME":"CAPELLA-13 (ACADIA-3)","OBJECT_ID":"2024-142A","EPOCH":"2026-07-09T20:58:29.029440","CLASSIFICATION_TYPE":"U","MEAN_MOTION":14.87663021,"ECCENTRICITY":0.00012465,"INCLINATION":53.0054,"RA_OF_ASC_NODE":318.5396,"ARG_OF_PERICENTER":89.7217,"MEAN_ANOMALY":270.3906,"EPHEMERIS_TYPE":0,"NORAD_CAT_ID":60419,"ELEMENT_SET_NO":999,"REV_AT_EPOCH":10378,"BSTAR":0.00038643312,"MEAN_MOTION_DOT":0.00003316,"MEAN_MOTION_DDOT":0},{"OBJECT_NAME":"CAPELLA-15 (ACADIA-5)","OBJECT_ID":"2024-149CE","EPOCH":"2026-07-08T18:40:01.354944","CLASSIFICATION_TYPE":"U","MEAN_MOTION":14.92382217,"ECCENTRICITY":0.00033866,"INCLINATION":97.6776,"RA_OF_ASC_NODE":262.1397,"ARG_OF_PERICENTER":8.7995,"MEAN_ANOMALY":351.3283,"EPHEMERIS_TYPE":0,"NORAD_CAT_ID":60544,"ELEMENT_SET_NO":999,"REV_AT_EPOCH":10307,"BSTAR":0.00020207209,"MEAN_MOTION_DOT":0.00002013,"MEAN_MOTION_DDOT":0},{"OBJECT_NAME":"CAPELLA-17 (ACADIA-7)","OBJECT_ID":"2025-135BH","EPOCH":"2026-07-11T03:42:35.152992","CLASSIFICATION_TYPE":"U","MEAN_MOTION":14.91594691,"ECCENTRICITY":0.0003941,"INCLINATION":97.7702,"RA_OF_ASC_NODE":305.4223,"ARG_OF_PERICENTER":267.6438,"MEAN_ANOMALY":92.433,"EPHEMERIS_TYPE":0,"NORAD_CAT_ID":64583,"ELEMENT_SET_NO":999,"REV_AT_EPOCH":5742,"BSTAR":0.00030149,"MEAN_MOTION_DOT":0.0000297,"MEAN_MOTION_DDOT":0},{"OBJECT_NAME":"CAPELLA-19 (ACADIA-9)","OBJECT_ID":"2026-004X","EPOCH":"2026-07-10T10:04:31.538208","CLASSIFICATION_TYPE":"U","MEAN_MOTION":14.86638237,"ECCENTRICITY":0.0001863,"INCLINATION":97.8021,"RA_OF_ASC_NODE":189.3742,"ARG_OF_PERICENTER":91.3562,"MEAN_ANOMALY":268.7867,"EPHEMERIS_TYPE":0,"NORAD_CAT_ID":67384,"ELEMENT_SET_NO":999,"REV_AT_EPOCH":2672,"BSTAR":0.00036834,"MEAN_MOTION_DOT":0.00003216,"MEAN_MOTION_DDOT":0},{"OBJECT_NAME":"CAPELLA-18 (ACADIA-8)","OBJECT_ID":"2026-004Y","EPOCH":"2026-07-10T10:18:58.347936","CLASSIFICATION_TYPE":"U","MEAN_MOTION":14.86640589,"ECCENTRICITY":0.0001179,"INCLINATION":97.8031,"RA_OF_ASC_NODE":189.5365,"ARG_OF_PERICENTER":97.2396,"MEAN_ANOMALY":262.8954,"EPHEMERIS_TYPE":0,"NORAD_CAT_ID":67385,"ELEMENT_SET_NO":999,"REV_AT_EPOCH":2673,"BSTAR":0.000086789,"MEAN_MOTION_DOT":0.00000717,"MEAN_MOTION_DDOT":0},{"OBJECT_NAME":"CAPELLA-20 (ACADIA-10)","OBJECT_ID":"2026-067BX","EPOCH":"2026-07-10T08:00:03.000384","CLASSIFICATION_TYPE":"U","MEAN_MOTION":14.9163605,"ECCENTRICITY":0.00008746,"INCLINATION":97.758,"RA_OF_ASC_NODE":149.2589,"ARG_OF_PERICENTER":142.3971,"MEAN_ANOMALY":27.887,"EPHEMERIS_TYPE":0,"NORAD_CAT_ID":68485,"ELEMENT_SET_NO":999,"REV_AT_EPOCH":570,"BSTAR":0.0047728813,"MEAN_MOTION_DOT":0.00048196,"MEAN_MOTION_DDOT":0}]}
