CAPELLA-11 (ACADIA-1)   
1 57693U 23126A   26191.27418803  .00002487  00000+0  31727-3 0  9999
2 57693  53.0069  84.6811 0002161 108.2589 251.8626 14.84779502155554
CAPELLA-14 (ACADIA-4)   
1 59444U 24066C   26191.40113345  .00008048  00000+0  51362-3 0  9993
2 59444  45.6019 133.0062 0000256 292.3900  67.6958 15.09192985115991
CAPELLA-13 (ACADIA-3)   
1 60419U 24142A   26190.87394710  .00003316  00000+0  38643-3 0  9999
2 60419  53.0054 318.5396 0001246  89.7217 270.3906 14.87663021103785
CAPELLA-15 (ACADIA-5)   
1 60544U 24149CE  26189.77779346  .00002013  00000+0  20207-3 0  9994
2 60544  97.6776 262.1397 0003386   8.7995 351.3283 14.92382217103076
CAPELLA-17 (ACADIA-7)   
1 64583U 25135BH  26192.15457353  .00002970  00000+0  30149-3 0  9992
2 64583  97.7702 305.4223 0003941 267.6438  92.4330 14.91594691 57420
CAPELLA-19 (ACADIA-9)   
1 67384U 26004X   26191.41980947  .00003216  00000+0  36834-3 0  9999
2 67384  97.8021 189.3742 0001863  91.3562 268.7867 14.86638237 26724
CAPELLA-18 (ACADIA-8)   
1 67385U 26004Y   26191.42984199  .00000717  00000+0  86789-4 0  9992
2 67385  97.8031 189.5365 0001179  97.2396 262.8954 14.86640589 26735
CAPELLA-20 (ACADIA-10)  
1 68485U 26067BX  26191.33336806  .00048196  00000+0  47729-2 0  9991
2 68485  97.7580 149.2589 0000874 142.3971  27.8870 14.91636050  5702
